UNKNOWN                 
1 82162U          22212.30682068  .00000849  00000+0  15514-2 0  9999
2 82162 100.3728  68.0969 0057196 321.4611  38.2440 13.43295774338556
UNKNOWN                 
1 82168U          22212.27190177  .00007249  00000+0  89130-3 0  9993
2 82168  74.0068  50.5892 0013780  90.1027 270.1730 14.83115402307637
UNKNOWN                 
1 82180U          22211.91078151  .00004313  00000+0  97014-3 0  9993
2 82180  65.6625  35.1879 0458508 112.5519 252.4748 14.08264748426196
UNKNOWN                 
1 82187U          22212.27653960  .00005640  00000+0  91723-3 0  9992
2 82187  70.9402  52.9311 0057914 245.9033 113.6054 14.70397005462506
UNKNOWN                 
1 82189U          22210.50646260  .00000085  00000+0  40064-4 0  9994
2 82189  74.0354 144.7739 0017920 274.4287  85.4818 14.33765464455732
UNKNOWN                 
1 82199U          22210.38629721  .00000226  00000+0  18978-3 0  9999
2 82199  82.9658  78.6869 0036630 295.0133 189.5279 13.83766968439143
UNKNOWN                 
1 82205U          22212.18668440  .00000749  00000+0  19576-3 0  9993
2 82205  62.9998 107.5538 0610355 171.6020 189.5828 13.81360794437274
UNKNOWN                 
1 82223U          22212.47134468  .00000511  00000+0  34596-3 0  9999
2 82223  99.4000  38.0720 0075928 146.9108 213.6841 14.03735185275737
UNKNOWN                 
1 82227U          22211.87855584 -.00000055  00000+0 -81033-4 0  9999
2 82227 101.8771 182.5842 0000370  53.3818 335.7085 12.41993087488359
UNKNOWN                 
1 82250U          22212.22387484  .00000783  00000+0  52727-3 0  9997
2 82250  98.9446 117.3037 0087006  38.9305 114.2715 14.01643584443592
UNKNOWN                 
1 82268U          22198.30828167  .00003088  00000+0  15761-2 0  9993
2 82268  99.1318 302.8990 0053099 255.9852 155.6349 14.15714546559260
UNKNOWN                 
1 82272U          22208.88268111  .00000237  00000+0  88418-3 0  9993
2 82272  67.5240 272.6797 0760364 175.7198 185.0828 12.32238144119846
UNKNOWN                 
1 82284U          22211.43422473  .00002412  00000+0  90977-3 0  9994
2 82284  99.5692  27.8394 0103253  26.1713 334.4633 14.29529290495088
UNKNOWN                 
1 82285U          22210.91243140  .00001998  00000+0  19919-2 0  9993
2 82285 101.9908  14.4747 0348797 129.6186 233.6285 13.55837227427963
UNKNOWN                 
1 82295U          22212.03973994  .00000394  00000+0  18367-3 0  9992
2 82295  66.6228 130.5704 0129898   6.1099 354.1543 14.26125413403944
UNKNOWN                 
1 82298U          22209.52253771  .00002031  00000+0  10403-2 0  9991
2 82298  99.0609 303.5826 0062866 229.8544 129.7112 14.15644925390706
UNKNOWN                 
1 82303U          22212.51901714  .00005900  00000+0  12364-1 0  9993
2 82303  81.9530 283.6873 0075132 149.1525 274.8713 13.30256091348137
UNKNOWN                 
1 82311U          22212.48867368  .00000333  00000+0  54623-3 0  9995
2 82311  99.5102 303.1739 0113909 161.3833 199.1522 13.52235822383913
UNKNOWN                 
1 82314U          22212.15829291  .00008038  00000+0  28348-3 0  9990
2 82314  99.2302   8.2958 0163563 279.5786  78.6995 15.17846164356309
UNKNOWN                 
1 82320U          22204.39138799  .00002047  00000+0  72943-3 0  9994
2 82320  99.8267 265.2153 0159851 180.9505 179.1392 14.28677844451103
UNKNOWN                 
1 82322U          22212.16283558  .00002363  00000+0  55275-3 0  9994
2 82322  98.5662 289.0159 0072733 253.7590 105.5595 14.54022472385650
UNKNOWN                 
1 82363U          22212.52935998  .00000307  00000+0  57648-3 0  9993
2 82363  66.9400 304.3175 0468485 230.3122 125.5722 13.13995331128542
UNKNOWN                 
1 82369U 99025    22211.82293298 -.00000036  00000+0  48478-5 0  9999
2 82369  99.0073 242.6169 0085154 131.6565 229.1928 13.97124940385232
UNKNOWN                 
1 82381U          22212.01629502  .00001566  00000+0  50376-3 0  9997
2 82381  98.4801  47.9099 0016501 330.6004  29.4255 14.40632414331802
UNKNOWN                 
1 82383U          22212.41186974  .00005846  00000+0  70346-3 0  9998
2 82383  98.2705 272.2070 0003506 247.2677 112.8166 14.84311946364522
UNKNOWN                 
1 82402U          22211.78645508  .00000800  00000+0  87781-4 0  9999
2 82402  86.6711 318.6088 0008463 268.8160  91.2095 14.86288535270761
UNKNOWN                 
1 82410U          22212.21282756 -.00000014  00000+0  61577-4 0  9992
2 82410  66.6581  49.7286 0057374 130.9399 229.6658 13.76181135417359
UNKNOWN                 
1 82428U          22212.37650565  .00006638  00000+0  52774-2 0  9999
2 82428  63.1703 347.3454 0106789  62.6599 298.5270 13.89257307249502
UNKNOWN                 
1 82432U 93036    22209.28532970  .00000477  00000+0  12497-3 0  9994
2 82432  74.0096 157.0562 0064833 261.1395  98.2422 14.50963016303596
UNKNOWN                 
1 82448U          22212.17809821  .00000800  00000+0  87715-4 0  9990
2 82448  85.8802 126.1726 0010080 341.5884  18.4974 14.86245349253386
UNKNOWN                 
1 82451U          22205.72447074  .00016511  00000+0  15219-2 0  9999
2 82451  66.5299 239.9604 0254673 320.6231  37.6608 14.73275434950628
UNKNOWN                 
1 82453U          22211.62906896 -.00000019  00000+0  19075-3 0  9991
2 82453 101.9964 161.9088 0094232 326.5081  33.0048 12.39549437393518
UNKNOWN                 
1 82458U          22212.43275020  .00000647  00000+0  40468-3 0  9990
2 82458  66.5114 111.4219 0058214 121.8331 238.8441 14.10288391435874
UNKNOWN                 
1 82464U          22208.94818459  .00002851  00000+0  80167-3 0  9996
2 82464  71.0001 282.5899 0080047 237.5017 296.7394 14.44883002455437
UNKNOWN                 
1 82475U          22205.83396261  .00000956  00000+0  58809-3 0  9997
2 82475  99.1198 247.9441 0103334 308.2237  50.9662 14.05512570372061
UNKNOWN                 
1 82484U          22212.10482611  .00000031  00000+0  10595-3 0  9994
2 82484  99.5075 272.6841 0045324  67.4651 293.1275 13.55162118423911
UNKNOWN                 
1 82494U 93036    22211.46161970  .00001040  00000+0  27030-3 0  9999
2 82494  74.0195 228.6794 0014242 295.6723  64.2967 14.50884951303500
UNKNOWN                 
1 82500U          22211.94626758  .00001123  00000+0  66224-3 0  9999
2 82500  70.9722  56.2062 0141772 166.0489 194.4611 14.05104087445347
UNKNOWN                 
1 82517U          22212.51993393  .00004486  00000+0  12197-2 0  9997
2 82517  86.3870 247.4840 0016667 355.4706   4.6343 14.47264368245413
UNKNOWN                 
1 82524U          22212.11123501  .00000737  00000+0  33552-3 0  9991
2 82524  73.2921 339.0193 0174895 156.6605  17.1913 14.15885698401875
UNKNOWN                 
1 82526U          22203.10096085  .00001619  00000+0  10416-2 0  9991
2 82526  99.2222 250.8595 0105030 148.6141 212.1349 14.01893634347723
UNKNOWN                 
1 82529U          22212.04356846  .00000254  00000+0  46631-3 0  9994
2 82529  99.7938 319.7797 0246189 355.7393 179.8326 13.38849588424925
UNKNOWN                 
1 82545U          22211.67727262 -.00000041  00000+0  38546-4 0  9996
2 82545  64.8875   7.5932 0174346 171.4868 188.9081 11.30783331299713
UNKNOWN                 
1 82560U          22212.51382709  .00000427  00000+0  41612-3 0  9994
2 82560 100.0393  52.9355 0009392 305.0421  87.9047 13.85895006441207
UNKNOWN                 
1 82561U          22210.32629810  .00002213  00000+0  65606-3 0  9993
2 82561  63.1142 142.5839 0508595   8.5205  71.1762 13.90120259439704
UNKNOWN                 
1 82576U          22212.54687706  .00000845  00000+0  56274-3 0  9993
2 82576  99.2457 247.9546 0122706 156.5546 204.1279 14.00387060 61576
UNKNOWN                 
1 82597U          22211.77684862  .00000402  00000+0  18288-3 0  9992
2 82597  66.7730 128.7150 0099539 146.1313 214.6197 14.28841721452740
UNKNOWN                 
1 82616U          22212.44408495  .00009006  00000+0  94374-3 0  9994
2 82616  97.2909 280.4816 0083457  45.1003 315.6948 14.87186213383461
UNKNOWN                 
1 82617U          22211.88394972  .00000125  00000+0  42181-4 0  9999
2 82617  74.0286  27.9573 0041422 275.1221  84.5210 14.46489098458694
UNKNOWN                 
1 82627U          22212.02210814  .00000815  00000+0  21815-2 0  9994
2 82627  82.4762  44.3705 0010936 284.9329 230.2046 13.13985516417062
UNKNOWN                 
1 82642U          22212.03096925  .00000830  00000+0  54378-3 0  9995
2 82642  99.0012 121.3757 0144728  58.4016 303.1181 13.99849483443546
UNKNOWN                 
1 82683U 99057    22212.21081319  .00000196  00000+0  97118-4 0  9996
2 82683  98.1303   2.6498 0227136  19.8647 341.1198 14.14058255288019
UNKNOWN                 
1 82693U          22210.38089007  .00000985  00000+0  13584-2 0  9994
2 82693 100.5376  54.9788 0042118 186.5732 173.4858 13.60994493385652
UNKNOWN                 
1 82698U          22212.23192067  .00000138  00000+0  14262-3 0  9991
2 82698  61.6090 184.6335 0723197 201.6634 155.2280 13.22032033375274
UNKNOWN                 
1 82708U          22203.03026618  .00000936  00000+0  38885-2 0  9991
2 82708 102.1476 275.7922 0059210 261.9724  97.4645 12.87443078363809
UNKNOWN                 
1 82729U          22212.36584689  .00001345  00000+0  46969-2 0  9994
2 82729  67.9545 110.3938 0833598 132.1840 235.3076 12.16263056385493
UNKNOWN                 
1 82737U          22211.38254435  .00004667  00000+0  60547-2 0  9995
2 82737 102.8271  13.1877 0301798 331.5702  26.9236 13.45568265379121
UNKNOWN                 
1 82739U          22212.04803146  .00000361  00000+0  36173-3 0  9996
2 82739  99.0325  46.6078 0182625 336.3581 178.9155 13.76899247436424
UNKNOWN                 
1 82741U          22212.46889481  .00000937  00000+0  12113-2 0  9997
2 82741 102.8677 207.5614 0212286 119.2561 242.9970 13.57457042429675
UNKNOWN                 
1 82742U          22195.44493738  .00003834  00000+0  16093-2 0  9992
2 82742  99.5733 290.3938 0053677   1.7092 358.4259 14.25799064365256
